{"spkid": "20523598", "covariance": {"data": [["4.300330765480789E-15", "-6.015381446598772E-15", "1.184474743746321E-13", "5.691362947259901E-14", "4.607898182244897E-13", "-3.247950910557916E-13"], ["-6.015381446598772E-15", "8.414882012179011E-15", "-1.654891013940334E-13", "-7.880702419565284E-14", "-6.4577931608697E-13", "4.503849315855428E-13"], ["1.184474743746321E-13", "-1.654891013940334E-13", "5.390901037163371E-11", "-6.435782140224377E-12", "4.964839127565502E-11", "1.115011728484146E-11"], ["5.691362947259901E-14", "-7.880702419565284E-14", "-6.435782140224377E-12", "3.19606842389223E-11", "-2.182963899933613E-11", "-6.193770098087302E-11"], ["4.607898182244897E-13", "-6.4577931608697E-13", "4.964839127565502E-11", "-2.182963899933613E-11", "1.021991405877978E-10", "1.850998807987843E-11"], ["-3.247950910557916E-13", "4.503849315855428E-13", "1.115011728484146E-11", "-6.193770098087302E-11", "1.850998807987843E-11", "9.051242317465685E-10"]], "elements": [{"label": "e", "sigma": 6.5576907257668e-08, "name": "e", "title": "eccentricity", "value": ".5468230192479275", "units": null}, {"units": "au", "value": ".6417088743925888", "title": "perihelion distance", "sigma": 9.17326660038779e-08, "name": "q", "label": "q"}, {"sigma": 7.34227555813821e-06, "name": "tp", "value": "2454619.225415941264", "title": "time of perihelion passage", "units": "TDB", "label": "tp"}, {"label": "node", "sigma": 5.65337812629956e-06, "name": "om", "units": "deg", "title": "longitude of the ascending node", "value": "173.6144020569399"}, {"label": "peri", "name": "w", "sigma": 1.01093590591985e-05, "units": "deg", "title": "argument of perihelion", "value": "93.92728616759328"}, {"label": "i", "units": "deg", "value": "33.7296279564621", "title": "inclination", "sigma": 3.00852826436211e-05, "name": "i"}], "labels": ["e", "q", "tp", "node", "peri", "i"], "epoch": "2454481.5"}, "elements": [{"name": "e", "sigma": "6.5257E-8", "units": null, "value": ".546803948772152", "title": "eccentricity", "label": "e"}, {"sigma": "1.8885E-9", "name": "a", "units": "au", "value": "1.416432457462079", "title": "semi-major axis", "label": "a"}, {"label": "q", "value": ".6419215965527708", "title": "perihelion distance", "units": "au", "sigma": "9.1942E-8", "name": "q"}, {"units": "deg", "title": "inclination; angle with respect to x-y ecliptic plane", "value": "33.72611575276513", "sigma": "3.009E-5", "name": "i", "label": "i"}, {"name": "om", "sigma": "5.606E-6", "units": "deg", "title": "longitude of the ascending node", "value": "173.450793348692", "label": "node"}, {"sigma": "1.0058E-5", "name": "w", "value": "94.03783595022801", "title": "argument of perihelion", "units": "deg", "label": "peri"}, {"label": "M", "units": "deg", "title": "mean anomaly", "value": "249.6147299084041", "name": "ma", "sigma": "1.242E-5"}, {"sigma": "2.1516E-5", "name": "tp", "value": "2461389.299506935079", "title": "time of perihelion passage", "units": "TDB", "label": "tp"}, {"label": "period", "units": "d", "value": "615.7327190505582", "title": "sidereal orbital period", "sigma": "1.2314E-6", "name": "per"}, {"label": "n", "name": "n", "sigma": "1.1693E-9", "title": "mean motion", "value": ".5846692710355061", "units": "deg/d"}, {"sigma": "2.9211E-9", "name": "ad", "units": "au", "value": "2.190943318371386", "title": "aphelion distance", "label": "Q"}], "epoch": "2461200.5"}